NORAD_CAT_ID,OBJECT_NAME,OBJECT_TYPE,EPOCH,MEAN_MOTION,ECCENTRICITY,INCLINATION,RA_OF_ASC_NODE,ARG_OF_PERICENTER,MEAN_ANOMALY,BSTAR,MEAN_MOTION_DOT,MEAN_MOTION_DDOT,TLE_LINE0,TLE_LINE1,TLE_LINE2,SEMIMAJOR_AXIS,PERIOD,APOGEE,PERIGEE,DECAYED
52564.0,STARLINK-3959,PAYLOAD,2024-07-26 04:05:03,15.08843208,0.0002029,53.2146,269.5613,130.6746,229.4423,8.6744e-05,1.093e-05,0.0,0 STARLINK-3959,1 52564U 22051AH  24208.17018381  .00001093  00000-0  86744-4 0  9993,2 52564  53.2146 269.5613 0002029 130.6746 229.4423 15.08843208122142,6917.871,95.437,541.139,538.332,0.0
52564.0,STARLINK-3959,PAYLOAD,2024-07-26 12:01:59,15.08843992,0.0001375,53.2164,268.0805,96.8355,263.2794,0.00013975,1.937e-05,0.0,0 STARLINK-3959,1 52564U 22051AH  24208.50138260  .00001937  00000-0  13975-3 0  9991,2 52564  53.2164 268.0805 0001375  96.8355 263.2794 15.08843992122126,6917.868,95.437,540.684,538.782,0.0
52564.0,STARLINK-3959,PAYLOAD,2024-07-26 21:34:18,15.08845915,0.0001483,53.2154,266.2948,100.0066,260.1094,4.6945e-05,4.59e-06,0.0,0 STARLINK-3959,1 52564U 22051AH  24208.89882210  .00000459  00000-0  46945-4 0  9996,2 52564  53.2154 266.2948 0001483 100.0066 260.1094 15.08845915122182,6917.862,95.437,540.753,538.701,0.0
52564.0,STARLINK-3959,PAYLOAD,2024-07-27 10:17:23,15.08847866,0.000141,53.2158,263.9168,98.6535,261.4617,3.4813e-05,2.66e-06,0.0,0 STARLINK-3959,1 52564U 22051AH  24209.42873920  .00000266  00000-0  34813-4 0  9991,2 52564  53.2158 263.9168 0001410  98.6535 261.4617 15.08847866122336,6917.856,95.437,540.697,538.746,0.0
52564.0,STARLINK-3959,PAYLOAD,2024-07-27 13:28:09,15.0884652,0.0001442,53.2157,263.3217,101.6662,258.4492,7.3495e-05,8.82e-06,0.0,0 STARLINK-3959,1 52564U 22051AH  24209.56121831  .00000882  00000-0  73495-4 0  9996,2 52564  53.2157 263.3217 0001442 101.6662 258.4492 15.08846520122282,6917.86,95.437,540.723,538.728,0.0
52564.0,STARLINK-3959,PAYLOAD,2024-07-28 13:18:57,15.08837628,0.0001371,53.2158,258.861,94.2084,265.9065,-4.5779e-05,-1.016e-05,0.0,0 STARLINK-3959,1 52564U 22051AH  24210.55482731 -.00001016  00000-0 -45779-4 0  9992,2 52564  53.2158 258.8610 0001371  94.2084 265.9065 15.08837628122508,6917.888,95.438,540.701,538.804,0.0
52564.0,STARLINK-3959,PAYLOAD,2024-07-29 09:58:57,15.0883721,0.0001369,53.2151,254.9966,85.9521,274.1627,3.8046e-05,3.18e-06,0.0,0 STARLINK-3959,1 52564U 22051AH  24211.41594814  .00000318  00000-0  38046-4 0  9995,2 52564  53.2151 254.9966 0001369  85.9521 274.1627 15.08837210122561,6917.889,95.438,540.701,538.807,0.0
52564.0,STARLINK-3959,PAYLOAD,2024-07-29 19:31:16,15.08839514,0.0001345,53.2154,253.2127,86.6368,273.4778,-6.9779e-06,-3.99e-06,0.0,0 STARLINK-3959,1 52564U 22051AH  24211.81338900 -.00000399  00000-0 -69779-5 0  9990,2 52564  53.2154 253.2127 0001345  86.6368 273.4778 15.08839514122698,6917.882,95.438,540.677,538.816,0.0
52564.0,STARLINK-3959,PAYLOAD,2024-07-30 11:25:07,15.08841634,0.0001384,53.2158,250.2394,88.7124,271.4027,0.00012479,1.699e-05,0.0,0 STARLINK-3959,1 52564U 22051AH  24212.47578677  .00001699  00000-0  12479-3 0  9995,2 52564  53.2158 250.2394 0001384  88.7124 271.4027 15.08841634122726,6917.875,95.437,540.698,538.783,0.0
52564.0,STARLINK-3959,PAYLOAD,2024-07-30 19:22:03,15.08840484,0.0001372,53.2157,248.7523,87.5159,272.599,0.00011776,1.587e-05,0.0,0 STARLINK-3959,1 52564U 22051AH  24212.80698795  .00001587  00000-0  11776-3 0  9991,2 52564  53.2157 248.7523 0001372  87.5159 272.5990 15.08840484122771,6917.879,95.438,540.693,538.795,0.0
52564.0,STARLINK-3959,PAYLOAD,2024-07-31 09:40:31,15.08846466,0.0001402,53.2157,246.0758,84.6103,275.5049,0.00012176,1.651e-05,0.0,0 STARLINK-3959,1 52564U 22051AH  24213.40314476  .00001651  00000-0  12176-3 0  9996,2 52564  53.2157 246.0758 0001402  84.6103 275.5049 15.08846466122935,6917.861,95.437,540.696,538.756,0.0
52564.0,STARLINK-3959,PAYLOAD,2024-08-01 11:06:42,15.08838508,0.0001393,53.2155,241.3171,80.3567,279.7582,-2.0927e-05,-6.21e-06,0.0,0 STARLINK-3959,1 52564U 22051AH  24214.46299423 -.00000621  00000-0 -20927-4 0  9999,2 52564  53.2155 241.3171 0001393  80.3567 279.7582 15.08838508123090,6917.885,95.438,540.714,538.786,0.0
52564.0,STARLINK-3959,PAYLOAD,2024-08-02 10:57:29,15.08845208,0.0001402,53.2154,236.8562,82.7625,277.3526,5.9729e-05,6.63e-06,0.0,0 STARLINK-3959,1 52564U 22051AH  24215.45658704  .00000663  00000-0  59729-4 0  9996,2 52564  53.2154 236.8562 0001402  82.7625 277.3526 15.08845208123248,6917.864,95.437,540.699,538.76,0.0
52564.0,STARLINK-3959,PAYLOAD,2024-08-03 07:37:30,15.08838964,0.0001365,53.2157,232.9875,91.0695,269.0454,7.4594e-05,8.99e-06,0.0,0 STARLINK-3959,1 52564U 22051AH  24216.31771038  .00000899  00000-0  74594-4 0  9996,2 52564  53.2157 232.9875 0001365  91.0695 269.0454 15.08838964123376,6917.884,95.438,540.693,538.804,0.0
52564.0,STARLINK-3959,PAYLOAD,2024-08-04 04:17:29,15.08855173,0.0001412,53.216,229.1219,91.7159,268.3995,0.0001314,1.805e-05,0.0,0 STARLINK-3959,1 52564U 22051AH  24217.17881546  .00001805  00000-0  13140-3 0  9994,2 52564  53.2160 229.1219 0001412  91.7159 268.3995 15.08855173123503,6917.834,95.437,540.676,538.722,0.0
52564.0,STARLINK-3959,PAYLOAD,2024-08-04 07:28:15,15.08856142,0.0001423,53.2159,228.5271,92.1102,268.0053,0.00014103,1.958e-05,0.0,0 STARLINK-3959,1 52564U 22051AH  24217.31129372  .00001958  00000-0  14103-3 0  9991,2 52564  53.2159 228.5271 0001423  92.1102 268.0053 15.08856142123450,6917.831,95.437,540.68,538.712,0.0
52564.0,STARLINK-3959,PAYLOAD,2024-08-05 05:43:41,15.08838666,0.0001406,53.216,224.3644,92.8369,267.2784,-3.673e-05,-8.72e-06,0.0,0 STARLINK-3959,1 52564U 22051AH  24218.23866990 -.00000872  00000-0 -36730-4 0  9994,2 52564  53.2160 224.3644 0001406  92.8369 267.2784 15.08838666123669,6917.884,95.438,540.722,538.777,0.0
52564.0,STARLINK-3959,PAYLOAD,2024-08-05 16:51:23,15.08833299,0.0001398,53.2159,222.282,89.5177,270.5976,-6.9679e-05,-1.396e-05,0.0,0 STARLINK-3959,1 52564U 22051AH  24218.70235460 -.00001396  00000-0 -69679-4 0  9998,2 52564  53.2159 222.2820 0001398  89.5177 270.5976 15.08833299123667,6917.901,95.438,540.733,538.799,0.0
52564.0,STARLINK-3959,PAYLOAD,2024-08-06 05:34:29,15.08828925,0.0001454,53.2163,219.9067,93.7962,266.3197,-0.00014731,-2.631e-05,0.0,0 STARLINK-3959,1 52564U 22051AH  24219.23228240 -.00002631  00000-0 -14731-3 0  9996,2 52564  53.2163 219.9067 0001454  93.7962 266.3197 15.08828925123815,6917.914,95.438,540.785,538.773,0.0
52564.0,STARLINK-3959,PAYLOAD,2024-08-06 07:09:52,15.08827086,0.0001426,53.2163,219.6115,95.0877,265.0277,-0.00012111,-2.214e-05,0.0,0 STARLINK-3959,1 52564U 22051AH  24219.29852308 -.00002214  00000-0 -12111-3 0  9997,2 52564  53.2163 219.6115 0001426  95.0877 265.0277 15.08827086123750,6917.92,95.438,540.771,538.798,0.0
52564.0,STARLINK-3959,PAYLOAD,2024-08-06 16:42:10,15.08835841,0.0001445,53.2163,217.8269,99.9031,260.2124,-0.00015461,-2.747e-05,0.0,0 STARLINK-3959,1 52564U 22051AH  24219.69596055 -.00002747  00000-0 -15461-3 0  9997,2 52564  53.2163 217.8269 0001445  99.9031 260.2124 15.08835841123886,6917.893,95.438,540.758,538.758,0.0
52564.0,STARLINK-3959,PAYLOAD,2024-08-06 23:03:43,15.08828815,0.0001303,53.2158,216.636,93.6407,266.4734,8.0573e-05,9.94e-06,0.0,0 STARLINK-3959,1 52564U 22051AH  24219.96092029  .00000994  00000-0  80573-4 0  9996,2 52564  53.2158 216.6360 0001303  93.6407 266.4734 15.08828815123855,6917.915,95.438,540.681,538.878,0.0
52564.0,STARLINK-3959,PAYLOAD,2024-08-08 08:26:48,15.088455,0.0001294,53.2152,210.39,85.4026,274.7114,0.00025362,3.751e-05,0.0,0 STARLINK-3959,1 52564U 22051AH  24221.35195426  .00003751  00000-0  25362-3 0  9995,2 52564  53.2152 210.3900 0001294  85.4026 274.7114 15.08845500124063,6917.864,95.437,540.624,538.833,0.0
52564.0,STARLINK-3959,PAYLOAD,2024-08-08 22:45:17,15.0884365,0.0001734,53.2179,207.7152,110.2192,249.8987,8.8768e-05,1.125e-05,0.0,0 STARLINK-3959,1 52564U 22051AH  24221.94811989  .00001125  00000-0  88768-4 0  9992,2 52564  53.2179 207.7152 0001734 110.2192 249.8987 15.08843650124156,6917.869,95.437,540.934,538.535,0.0
52564.0,STARLINK-3959,PAYLOAD,2024-08-09 05:06:50,15.08843383,0.0001798,53.2175,206.5226,119.2944,240.8228,4.0879e-05,3.63e-06,0.0,0 STARLINK-3959,1 52564U 22051AH  24222.21308127  .00000363  00000-0  40879-4 0  9992,2 52564  53.2175 206.5226 0001798 119.2944 240.8228 15.08843383124269,6917.87,95.437,540.979,538.491,0.0
52564.0,STARLINK-3959,PAYLOAD,2024-08-09 08:17:36,15.08841882,0.000196,53.2177,205.9283,121.5691,238.5493,3.4918e-05,2.68e-06,0.0,0 STARLINK-3959,1 52564U 22051AH  24222.34556208  .00000268  00000-0  34918-4 0  9992,2 52564  53.2177 205.9283 0001960 121.5691 238.5493 15.08841882124218,6917.875,95.437,541.096,538.384,0.0
52564.0,STARLINK-3959,PAYLOAD,2024-08-09 22:36:04,15.08844015,0.0001537,53.2171,203.2526,100.7281,259.3884,1.4455e-05,-5.8e-07,0.0,0 STARLINK-3959,1 52564U 22051AH  24222.94172239 -.00000058  00000-0  14455-4 0  9998,2 52564  53.2171 203.2526 0001537 100.7281 259.3884 15.08844015124303,6917.868,95.437,540.796,538.67,0.0
52564.0,STARLINK-3959,PAYLOAD,2024-08-10 03:22:13,15.08851217,0.0001603,53.2173,202.3622,91.8054,268.3121,2.3925e-05,9.3e-07,0.0,0 STARLINK-3959,1 52564U 22051AH  24223.14043698  .00000093  00000-0  23925-4 0  9997,2 52564  53.2173 202.3622 0001603  91.8054 268.3121 15.08851217124333,6917.846,95.437,540.82,538.602,0.0
52564.0,STARLINK-3959,PAYLOAD,2024-08-11 01:37:37,15.08845084,0.000166,53.2163,198.201,83.4401,276.678,-9.6225e-06,-4.41e-06,0.0,0 STARLINK-3959,1 52564U 22051AH  24224.06780039 -.00000441  00000-0 -96225-5 0  9999,2 52564  53.2163 198.2010 0001660  83.4401 276.6780 15.08845084124543,6917.865,95.437,540.878,538.581,0.0
52564.0,STARLINK-3959,PAYLOAD,2024-08-11 07:59:09,15.08850386,0.0001349,53.2166,197.0066,99.3376,260.7768,0.00011336,1.517e-05,0.0,0 STARLINK-3959,1 52564U 22051AH  24224.33275286  .00001517  00000-0  11336-3 0  9993,2 52564  53.2166 197.0066 0001349  99.3376 260.7768 15.08850386124580,6917.849,95.437,540.647,538.78,0.0
